CCSDS_OMM_VERS = 2.0
CREATION_DATE  = 
ORIGINATOR     = 

OBJECT_NAME    = UNKNOWN
OBJECT_ID      = 
CENTER_NAME    = EARTH
REF_FRAME      = TEME
TIME_SYSTEM    = UTC
MEAN_ELEMENT_THEORY = SGP/SGP4

EPOCH          = 2025-12-15T19:13:50.102976
MEAN_MOTION    = 12.97052213
ECCENTRICITY   = .0032365
INCLINATION    = 90.2400
RA_OF_ASC_NODE = 6.6626
ARG_OF_PERICENTER = 211.8764
MEAN_ANOMALY   = 148.0399

EPHEMERIS_TYPE = 0
CLASSIFICATION_TYPE = U
NORAD_CAT_ID   = 270115
ELEMENT_SET_NO = 999
REV_AT_EPOCH   = 28562
BSTAR          = .18039515E-2
MEAN_MOTION_DOT = .529E-5
MEAN_MOTION_DDOT = 0

CCSDS_OMM_VERS = 2.0
CREATION_DATE  = 
ORIGINATOR     = 

OBJECT_NAME    = UNKNOWN
OBJECT_ID      = 
CENTER_NAME    = EARTH
REF_FRAME      = TEME
TIME_SYSTEM    = UTC
MEAN_ELEMENT_THEORY = SGP/SGP4

EPOCH          = 2025-12-16T15:20:19.894560
MEAN_MOTION    = 12.23516539
ECCENTRICITY   = .01329744
INCLINATION    = 74.0079
RA_OF_ASC_NODE = 338.3412
ARG_OF_PERICENTER = 206.3622
MEAN_ANOMALY   = 153.0607

EPHEMERIS_TYPE = 0
CLASSIFICATION_TYPE = U
NORAD_CAT_ID   = 270116
ELEMENT_SET_NO = 999
REV_AT_EPOCH   = 27059
BSTAR          = .38475929E-3
MEAN_MOTION_DOT = .28E-6
MEAN_MOTION_DDOT = 0

CCSDS_OMM_VERS = 2.0
CREATION_DATE  = 
ORIGINATOR     = 

OBJECT_NAME    = UNKNOWN
OBJECT_ID      = 
CENTER_NAME    = EARTH
REF_FRAME      = TEME
TIME_SYSTEM    = UTC
MEAN_ELEMENT_THEORY = SGP/SGP4

EPOCH          = 2025-12-14T07:08:11.339808
MEAN_MOTION    = 13.00242964
ECCENTRICITY   = .00269973
INCLINATION    = 90.2316
RA_OF_ASC_NODE = 357.0280
ARG_OF_PERICENTER = 357.9648
MEAN_ANOMALY   = 2.1360

EPHEMERIS_TYPE = 0
CLASSIFICATION_TYPE = U
NORAD_CAT_ID   = 270117
ELEMENT_SET_NO = 999
REV_AT_EPOCH   = 28673
BSTAR          = -.89262129E-3
MEAN_MOTION_DOT = -.262E-5
MEAN_MOTION_DDOT = 0

CCSDS_OMM_VERS = 2.0
CREATION_DATE  = 
ORIGINATOR     = 

OBJECT_NAME    = UNKNOWN
OBJECT_ID      = 
CENTER_NAME    = EARTH
REF_FRAME      = TEME
TIME_SYSTEM    = UTC
MEAN_ELEMENT_THEORY = SGP/SGP4

EPOCH          = 2025-12-14T17:40:39.971136
MEAN_MOTION    = 12.37995214
ECCENTRICITY   = .01144984
INCLINATION    = 47.2381
RA_OF_ASC_NODE = 161.3326
ARG_OF_PERICENTER = 342.3788
MEAN_ANOMALY   = 17.3055

EPHEMERIS_TYPE = 0
CLASSIFICATION_TYPE = U
NORAD_CAT_ID   = 270120
ELEMENT_SET_NO = 999
REV_AT_EPOCH   = 27324
BSTAR          = .10009015E-2
MEAN_MOTION_DOT = .43E-6
MEAN_MOTION_DDOT = 0

CCSDS_OMM_VERS = 2.0
CREATION_DATE  = 
ORIGINATOR     = 

OBJECT_NAME    = UNKNOWN
OBJECT_ID      = 
CENTER_NAME    = EARTH
REF_FRAME      = TEME
TIME_SYSTEM    = UTC
MEAN_ELEMENT_THEORY = SGP/SGP4

EPOCH          = 2025-12-14T16:47:51.639936
MEAN_MOTION    = 14.55067800
ECCENTRICITY   = .0004491
INCLINATION    = 98.6859
RA_OF_ASC_NODE = 155.6199
ARG_OF_PERICENTER = 316.7913
MEAN_ANOMALY   = 43.2930

EPHEMERIS_TYPE = 0
CLASSIFICATION_TYPE = U
NORAD_CAT_ID   = 270121
ELEMENT_SET_NO = 999
REV_AT_EPOCH   = 32004
BSTAR          = .5052462E-3
MEAN_MOTION_DOT = .213E-4
MEAN_MOTION_DDOT = 0

CCSDS_OMM_VERS = 2.0
CREATION_DATE  = 
ORIGINATOR     = 

OBJECT_NAME    = UNKNOWN
OBJECT_ID      = 
CENTER_NAME    = EARTH
REF_FRAME      = TEME
TIME_SYSTEM    = UTC
MEAN_ELEMENT_THEORY = SGP/SGP4

EPOCH          = 2025-12-14T08:14:40.679232
MEAN_MOTION    = 12.96248912
ECCENTRICITY   = .00271088
INCLINATION    = 90.2422
RA_OF_ASC_NODE = 7.7308
ARG_OF_PERICENTER = 300.2944
MEAN_ANOMALY   = 59.5494

EPHEMERIS_TYPE = 0
CLASSIFICATION_TYPE = U
NORAD_CAT_ID   = 270122
ELEMENT_SET_NO = 999
REV_AT_EPOCH   = 28542
BSTAR          = .11742688E-2
MEAN_MOTION_DOT = .343E-5
MEAN_MOTION_DDOT = 0

CCSDS_OMM_VERS = 2.0
CREATION_DATE  = 
ORIGINATOR     = 

OBJECT_NAME    = UNKNOWN
OBJECT_ID      = 
CENTER_NAME    = EARTH
REF_FRAME      = TEME
TIME_SYSTEM    = UTC
MEAN_ELEMENT_THEORY = SGP/SGP4

EPOCH          = 2025-11-28T19:13:53.630688
MEAN_MOTION    = 12.23600043
ECCENTRICITY   = .08155267
INCLINATION    = 83.2674
RA_OF_ASC_NODE = 9.5972
ARG_OF_PERICENTER = 206.1446
MEAN_ANOMALY   = 149.6208

EPHEMERIS_TYPE = 0
CLASSIFICATION_TYPE = U
NORAD_CAT_ID   = 270123
ELEMENT_SET_NO = 999
REV_AT_EPOCH   = 26782
BSTAR          = .1811752E-2
MEAN_MOTION_DOT = .588E-5
MEAN_MOTION_DDOT = 0

CCSDS_OMM_VERS = 2.0
CREATION_DATE  = 
ORIGINATOR     = 

OBJECT_NAME    = UNKNOWN
OBJECT_ID      = 
CENTER_NAME    = EARTH
REF_FRAME      = TEME
TIME_SYSTEM    = UTC
MEAN_ELEMENT_THEORY = SGP/SGP4

EPOCH          = 2025-12-16T06:55:41.212416
MEAN_MOTION    = 12.96861461
ECCENTRICITY   = .00273887
INCLINATION    = 90.2426
RA_OF_ASC_NODE = 9.1354
ARG_OF_PERICENTER = 153.2266
MEAN_ANOMALY   = 207.0275

EPHEMERIS_TYPE = 0
CLASSIFICATION_TYPE = U
NORAD_CAT_ID   = 270124
ELEMENT_SET_NO = 999
REV_AT_EPOCH   = 28657
BSTAR          = .14224743E-2
MEAN_MOTION_DOT = .417E-5
MEAN_MOTION_DDOT = 0

CCSDS_OMM_VERS = 2.0
CREATION_DATE  = 
ORIGINATOR     = 

OBJECT_NAME    = UNKNOWN
OBJECT_ID      = 
CENTER_NAME    = EARTH
REF_FRAME      = TEME
TIME_SYSTEM    = UTC
MEAN_ELEMENT_THEORY = SGP/SGP4

EPOCH          = 2025-12-16T05:37:49.528128
MEAN_MOTION    = 14.74948881
ECCENTRICITY   = .00132826
INCLINATION    = 86.3268
RA_OF_ASC_NODE = 334.5736
ARG_OF_PERICENTER = 236.2204
MEAN_ANOMALY   = 123.7750

EPHEMERIS_TYPE = 0
CLASSIFICATION_TYPE = U
NORAD_CAT_ID   = 270127
ELEMENT_SET_NO = 999
REV_AT_EPOCH   = 32123
BSTAR          = .118022E-2
MEAN_MOTION_DOT = .7964E-4
MEAN_MOTION_DDOT = 0

CCSDS_OMM_VERS = 2.0
CREATION_DATE  = 
ORIGINATOR     = 

OBJECT_NAME    = UNKNOWN
OBJECT_ID      = 
CENTER_NAME    = EARTH
REF_FRAME      = TEME
TIME_SYSTEM    = UTC
MEAN_ELEMENT_THEORY = SGP/SGP4

EPOCH          = 2025-12-02T18:25:26.881536
MEAN_MOTION    = 12.33804284
ECCENTRICITY   = .00466328
INCLINATION    = 102.4333
RA_OF_ASC_NODE = 337.3688
ARG_OF_PERICENTER = 257.9033
MEAN_ANOMALY   = 101.6798

EPHEMERIS_TYPE = 0
CLASSIFICATION_TYPE = U
NORAD_CAT_ID   = 270128
ELEMENT_SET_NO = 999
REV_AT_EPOCH   = 27100
BSTAR          = .52037389E-3
MEAN_MOTION_DOT = .18E-6
MEAN_MOTION_DDOT = 0

CCSDS_OMM_VERS = 2.0
CREATION_DATE  = 
ORIGINATOR     = 

OBJECT_NAME    = UNKNOWN
OBJECT_ID      = 
CENTER_NAME    = EARTH
REF_FRAME      = TEME
TIME_SYSTEM    = UTC
MEAN_ELEMENT_THEORY = SGP/SGP4

EPOCH          = 2025-12-04T08:12:23.534784
MEAN_MOTION    = 12.98604442
ECCENTRICITY   = .00281629
INCLINATION    = 90.2370
RA_OF_ASC_NODE = 4.2551
ARG_OF_PERICENTER = 226.3334
MEAN_ANOMALY   = 133.5453

EPHEMERIS_TYPE = 0
CLASSIFICATION_TYPE = U
NORAD_CAT_ID   = 270129
ELEMENT_SET_NO = 999
REV_AT_EPOCH   = 28462
BSTAR          = -.2364926E-2
MEAN_MOTION_DOT = -.691E-5
MEAN_MOTION_DDOT = 0

CCSDS_OMM_VERS = 2.0
CREATION_DATE  = 
ORIGINATOR     = 

OBJECT_NAME    = UNKNOWN
OBJECT_ID      = 
CENTER_NAME    = EARTH
REF_FRAME      = TEME
TIME_SYSTEM    = UTC
MEAN_ELEMENT_THEORY = SGP/SGP4

EPOCH          = 2025-12-16T16:04:21.555552
MEAN_MOTION    = 15.01663441
ECCENTRICITY   = .00135447
INCLINATION    = 99.1730
RA_OF_ASC_NODE = 131.4399
ARG_OF_PERICENTER = 253.4801
MEAN_ANOMALY   = 106.4931

EPHEMERIS_TYPE = 0
CLASSIFICATION_TYPE = U
NORAD_CAT_ID   = 270130
ELEMENT_SET_NO = 999
REV_AT_EPOCH   = 31594
BSTAR          = .10017326E-1
MEAN_MOTION_DOT = .132693E-2
MEAN_MOTION_DDOT = 0

CCSDS_OMM_VERS = 2.0
CREATION_DATE  = 
ORIGINATOR     = 

OBJECT_NAME    = UNKNOWN
OBJECT_ID      = 
CENTER_NAME    = EARTH
REF_FRAME      = TEME
TIME_SYSTEM    = UTC
MEAN_ELEMENT_THEORY = SGP/SGP4

EPOCH          = 2025-12-16T11:07:10.497216
MEAN_MOTION    = 4.52462483
ECCENTRICITY   = .54233046
INCLINATION    = 63.1253
RA_OF_ASC_NODE = 151.7882
ARG_OF_PERICENTER = 347.7207
MEAN_ANOMALY   = 3.0553

EPHEMERIS_TYPE = 0
CLASSIFICATION_TYPE = U
NORAD_CAT_ID   = 270131
ELEMENT_SET_NO = 999
REV_AT_EPOCH   = 10008
BSTAR          = -.72215777E-3
MEAN_MOTION_DOT = -.72E-6
MEAN_MOTION_DDOT = 0

CCSDS_OMM_VERS = 2.0
CREATION_DATE  = 
ORIGINATOR     = 

OBJECT_NAME    = UNKNOWN
OBJECT_ID      = 
CENTER_NAME    = EARTH
REF_FRAME      = TEME
TIME_SYSTEM    = UTC
MEAN_ELEMENT_THEORY = SGP/SGP4

EPOCH          = 2025-11-27T15:43:33.696768
MEAN_MOTION    = 12.79544627
ECCENTRICITY   = .03862874
INCLINATION    = 63.2034
RA_OF_ASC_NODE = 116.4429
ARG_OF_PERICENTER = 18.1450
MEAN_ANOMALY   = 343.2897

EPHEMERIS_TYPE = 0
CLASSIFICATION_TYPE = U
NORAD_CAT_ID   = 270133
ELEMENT_SET_NO = 999
REV_AT_EPOCH   = 28046
BSTAR          = .16744853E-2
MEAN_MOTION_DOT = .442E-5
MEAN_MOTION_DDOT = 0

CCSDS_OMM_VERS = 2.0
CREATION_DATE  = 
ORIGINATOR     = 

OBJECT_NAME    = UNKNOWN
OBJECT_ID      = 
CENTER_NAME    = EARTH
REF_FRAME      = TEME
TIME_SYSTEM    = UTC
MEAN_ELEMENT_THEORY = SGP/SGP4

EPOCH          = 2025-12-14T11:53:56.041728
MEAN_MOTION    = 12.29535497
ECCENTRICITY   = .06780364
INCLINATION    = 66.0625
RA_OF_ASC_NODE = 60.4087
ARG_OF_PERICENTER = 219.2315
MEAN_ANOMALY   = 135.7633

EPHEMERIS_TYPE = 0
CLASSIFICATION_TYPE = U
NORAD_CAT_ID   = 270134
ELEMENT_SET_NO = 999
REV_AT_EPOCH   = 27148
BSTAR          = .57226716E-4
MEAN_MOTION_DOT = -.4E-6
MEAN_MOTION_DDOT = 0

CCSDS_OMM_VERS = 2.0
CREATION_DATE  = 
ORIGINATOR     = 

OBJECT_NAME    = UNKNOWN
OBJECT_ID      = 
CENTER_NAME    = EARTH
REF_FRAME      = TEME
TIME_SYSTEM    = UTC
MEAN_ELEMENT_THEORY = SGP/SGP4

EPOCH          = 2025-12-16T13:40:56.830944
MEAN_MOTION    = 13.04677329
ECCENTRICITY   = .02679757
INCLINATION    = 63.5729
RA_OF_ASC_NODE = 291.3399
ARG_OF_PERICENTER = 334.3023
MEAN_ANOMALY   = 24.4867

EPHEMERIS_TYPE = 0
CLASSIFICATION_TYPE = U
NORAD_CAT_ID   = 270135
ELEMENT_SET_NO = 999
REV_AT_EPOCH   = 28813
BSTAR          = .11620413E-2
MEAN_MOTION_DOT = .365E-5
MEAN_MOTION_DDOT = 0

